H1 CPF 01  gfz 2021 07 14 12  6952 tandemx   
H2 1003001  6202 36605    2021 07 14 12 59 42 2021 07 19 00 00 42   120 1 1  0 0 0
H9
10 0 59412  35982.000000  0   -2959032.424   3755195.728  -4967395.679
10 0 59412  36102.000000  0   -3159779.408   4360543.652  -4304385.488
10 0 59412  36222.000000  0   -3295609.899   4892988.971  -3565972.236
10 0 59412  36342.000000  0   -3365466.934   5342032.293  -2765022.318
10 0 59412  36462.000000  0   -3369611.963   5698604.170  -1915530.606
10 0 59412  36582.000000  0   -3309600.784   5955257.823  -1032378.221
10 0 59412  36702.000000  0   -3188231.362   6106332.270   -131069.203
10 0 59412  36822.000000  0   -3009467.731   6148081.558    772545.703
10 0 59412  36942.000000  0   -2778339.750   6078768.733   1662557.326
10 0 59412  37062.000000  0   -2500817.827   5898716.740   2523289.368
10 0 59412  37182.000000  0   -2183669.301   5610316.135   3339583.123
10 0 59412  37302.000000  0   -1834301.054   5217991.831   4097070.432
10 0 59412  37422.000000  0   -1460591.735   4728129.767   4782430.628
10 0 59412  37542.000000  0   -1070716.771   4148965.223   5383626.446
10 0 59412  37662.000000  0    -672970.966   3490435.421   5890113.513
10 0 59412  37782.000000  0    -275594.314   2764000.630   6293021.261
10 0 59412  37902.000000  0     113397.021   1982437.810   6585302.072
10 0 59412  38022.000000  0     486370.648   1159611.992   6761848.927
10 0 59412  38142.000000  0     836226.484    310227.332   6819578.958
10 0 59412  38262.000000  0    1156530.605   -550435.044   6757483.301
10 0 59412  38382.000000  0    1441632.876  -1406791.317   6576644.823
10 0 59412  38502.000000  0    1686766.792  -2243236.646   6280220.531
10 0 59412  38622.000000  0    1888129.658  -3044429.942   5873390.597
10 0 59412  38742.000000  0    2042942.020  -3795577.526   5363272.833
10 0 59412  38862.000000  0    2149485.028  -4482709.616   4758803.114
10 0 59412  38982.000000  0    2207115.815  -5092944.767   4070584.781
10 0 59412  39102.000000  0    2216261.408  -5614739.846   3310707.126
10 0 59412  39222.000000  0    2178387.848  -6038117.421   2492533.652
10 0 59412  39342.000000  0    2095946.897  -6354864.665   1630465.293
10 0 59412  39462.000000  0    1972302.849  -6558699.098    739683.365
10 0 59412  39582.000000  0    1811638.925  -6645399.064   -164123.447
10 0 59412  39702.000000  0    1618846.740  -6612894.957  -1065044.269
10 0 59412  39822.000000  0    1399399.267  -6461313.794  -1947237.589
10 0 59412  39942.000000  0    1159212.251  -6192979.213  -2795216.911
10 0 59412  40062.000000  0     904499.139  -5812366.961  -3594128.629
10 0 59412  40182.000000  0     641623.754  -5326018.579  -4330013.719
10 0 59412  40302.000000  0     376951.754  -4742416.463  -4990049.970
10 0 59412  40422.000000  0     116706.003  -4071823.860  -5562769.490
10 0 59412  40542.000000  0    -133171.024  -3326094.020  -6038249.639
10 0 59412  40662.000000  0    -367144.965  -2518452.846  -6408274.103
10 0 59412  40782.000000  0    -580205.102  -1663260.283  -6666463.309
10 0 59412  40902.000000  0    -767965.855   -775755.166  -6808373.600
10 0 59412  41022.000000  0    -926752.462    128213.172  -6831566.015
10 0 59412  41142.000000  0   -1053669.887   1032462.200  -6735642.362
10 0 59412  41262.000000  0   -1146654.237   1920758.110  -6522251.138
10 0 59412  41382.000000  0   -1204505.721   2777099.676  -6195062.166
10 0 59412  41502.000000  0   -1226902.947   3586001.217  -5759712.019
10 0 59412  41622.000000  0   -1214398.497   4332770.857  -5223716.620
10 0 59412  41742.000000  0   -1168395.273   5003778.749  -4596353.285
10 0 59412  41862.000000  0   -1091104.557   5586711.850  -3888511.021
10 0 59412  41982.000000  0    -985485.615   6070808.242  -3112510.173
10 0 59412  42102.000000  0    -855167.934   6447066.137  -2281894.996
10 0 59412  42222.000000  0    -704357.543   6708423.959  -1411200.781
10 0 59412  42342.000000  0    -537729.795   6849904.506   -515698.983
10 0 59412  42462.000000  0    -360310.109   6868720.720    388873.992
10 0 59412  42582.000000  0    -177345.970   6764338.998   1286600.681
10 0 59412  42702.000000  0       5825.817   6538495.772   2161673.026
10 0 59412  42822.000000  0     183913.155   6195166.331   2998679.581
10 0 59412  42942.000000  0     351800.907   5740490.102   3782883.238
10 0 59412  43062.000000  0     504678.701   5182655.921   4500485.591
10 0 59412  43182.000000  0     638160.200   4531744.726   5138877.229
10 0 59412  43302.000000  0     748390.786   3799532.652   5686855.786
10 0 59412  43422.000000  0     832143.010   2999271.240   6134818.395
10 0 59412  43542.000000  0     886895.580   2145439.589   6474925.628
10 0 59412  43662.000000  0     910895.062   1253476.966   6701232.713
10 0 59412  43782.000000  0     903199.813    339500.080   6809787.382
10 0 59412  43902.000000  0     863705.154   -579987.807   6798693.876
10 0 59412  44022.000000  0     793149.102  -1488394.110   6668145.415
10 0 59412  44142.000000  0     693098.579  -2369336.324   6420421.328
10 0 59412  44262.000000  0     565916.292  -3206938.217   6059850.391
10 0 59412  44382.000000  0     414708.561  -3986118.133   5592737.527
10 0 59412  44502.000000  0     243256.260  -4692861.711   5027258.305
10 0 59412  44622.000000  0      55929.867  -5314478.645   4373323.509
10 0 59412  44742.000000  0    -142411.162  -5839840.439   3642411.639
10 0 59412  44862.000000  0    -346533.171  -6259590.084   2847369.609
10 0 59412  44982.000000  0    -550953.450  -6566319.038   2002186.374
10 0 59412  45102.000000  0    -750072.674  -6754706.033   1121744.068
10 0 59412  45222.000000  0    -938312.508  -6821618.535    221550.579
10 0 59412  45342.000000  0   -1110254.609  -6766168.177   -682543.502
10 0 59412  45462.000000  0   -1260775.875  -6589719.565  -1574633.276
10 0 59412  45582.000000  0   -1385177.354  -6295854.260  -2439047.164
10 0 59412  45702.000000  0   -1479304.259  -5890291.547  -3260628.538
10 0 59412  45822.000000  0   -1539653.825  -5380767.090  -4025005.831
10 0 59412  45942.000000  0   -1563467.958  -4776872.760  -4718844.155
10 0 59412  46062.000000  0   -1548808.782  -4089863.947  -5330073.308
10 0 59412  46182.000000  0   -1494615.995  -3332439.995  -5848090.102
10 0 59412  46302.000000  0   -1400744.816  -2518502.220  -6263932.884
10 0 59412  46422.000000  0   -1267984.039  -1662894.024  -6570425.539
10 0 59412  46542.000000  0   -1098054.506   -781129.666  -6762289.530
10 0 59412  46662.000000  0    -893588.521    110883.932  -6836225.172
10 0 59412  46782.000000  0    -658089.337    997128.301  -6790961.421
10 0 59412  46902.000000  0    -395872.007   1861753.363  -6627275.036
10 0 59412  47022.000000  0    -111987.356   2689353.322  -6347978.911
10 0 59412  47142.000000  0     187871.550   3465236.128  -5957880.881
10 0 59412  47262.000000  0     497479.824   4175682.728  -5463709.558
10 0 59412  47382.000000  0     810204.498   4808189.886  -4874008.725
10 0 59412  47502.000000  0    1119140.674   5351695.502  -4199001.710
10 0 59412  47622.000000  0    1417258.077   5796780.814  -3450424.076
10 0 59412  47742.000000  0    1697554.539   6135844.026  -2641327.608
10 0 59412  47862.000000  0    1953213.313   6363242.579  -1785857.850
10 0 59412  47982.000000  0    2177760.810   6475399.410   -899007.377
10 0 59412  48102.000000  0    2365220.496   6470868.651      3650.613
10 0 59412  48222.000000  0    2510258.641   6350358.701    906241.923
10 0 59412  48342.000000  0    2608318.277   6116712.213   1792877.959
10 0 59412  48462.000000  0    2655737.899   5774843.461   2647943.622
10 0 59412  48582.000000  0    2649852.199   5331634.645   3456380.233
10 0 59412  48702.000000  0    2589072.255   4795793.333   4203957.721
10 0 59412  48822.000000  0    2472942.315   4177674.742   4877531.290
10 0 59412  48942.000000  0    2302170.273   3489070.160   5465273.984
10 0 59412  49062.000000  0    2078635.011   2742973.864   5956879.839
10 0 59412  49182.000000  0    1805370.440   1953332.370   6343740.523
10 0 59412  49302.000000  0    1486524.386   1134778.206   6619091.458
10 0 59412  49422.000000  0    1127294.249    302355.107   6778122.973
10 0 59412  49542.000000  0     733841.546   -528757.777   6818058.395
10 0 59412  49662.000000  0     313185.999  -1343522.132   6738201.290
10 0 59412  49782.000000  0    -126919.984  -2127312.864   6539946.854
10 0 59412  49902.000000  0    -578134.267  -2866180.845   6226758.699
10 0 59412  50022.000000  0   -1031681.817  -3547102.137   5804110.166
10 0 59412  50142.000000  0   -1478522.302  -4158208.262   5279393.462
10 0 59412  50262.000000  0   -1909528.948  -4688997.288   4661798.929
10 0 59412  50382.000000  0   -2315675.551  -5130522.432   3962161.223
10 0 59412  50502.000000  0   -2688226.479  -5475552.366   3192772.301
10 0 59412  50622.000000  0   -3018924.076  -5718696.927   2367164.864
10 0 59412  50742.000000  0   -3300169.781  -5856496.969   1499872.424
10 0 59412  50862.000000  0   -3525195.118  -5887476.843    606168.894
10 0 59412  50982.000000  0   -3688218.025  -5812157.060   -298207.301
10 0 59412  51102.000000  0   -3784580.483  -5633026.947  -1197338.921
10 0 59412  51222.000000  0   -3810863.608  -5354476.879  -2075419.440
10 0 59412  51342.000000  0   -3764977.248  -4982691.903  -2917038.978
10 0 59412  51462.000000  0   -3646221.703  -4525510.135  -3707460.181
10 0 59412  51582.000000  0   -3455320.276  -3992250.715  -4432877.590
10 0 59412  51702.000000  0   -3194423.240  -3393516.848  -5080656.116
10 0 59412  51822.000000  0   -2867083.583  -2740978.306  -5639545.148
10 0 59412  51942.000000  0   -2478205.780  -2047139.042  -6099864.774
10 0 59412  52062.000000  0   -2033968.716  -1325095.166  -6453663.364
10 0 59412  52182.000000  0   -1541723.914   -588287.278  -6694843.497
10 0 59412  52302.000000  0   -1009872.832    149747.082  -6819255.112
10 0 59412  52422.000000  0    -447725.482    875616.232  -6824758.464
99
